TDRS 3                  
1 19548U 88091B   24121.47907211 -.00000296  00000+0  00000+0 0  9990
2 19548  13.2007 346.2576 0036493 343.8861  12.3962  1.00273569117569
HST                     
1 20580U 90037B   24122.16038722  .00006986  00000+0  33391-3 0  9994
2 20580  28.4685 300.0533 0001957 245.4969 114.5419 15.17056512670141
TDRS 5                  
1 21639U 91054B   24122.04895400 -.00000299  00000+0  00000+0 0  9990
2 21639  14.1704 359.4542 0002189 306.0802 229.0781  1.00270334119922
TDRS 6                  
1 22314U 93003B   24121.21173781 -.00000291  00000+0  00000+0 0  9998
2 22314  14.1627   2.7676 0008875 147.6440  98.4249  1.00278956114603
TDRS 7                  
1 23613U 95035B   24122.51299299 -.00000201  00000+0  00000+0 0  9996
2 23613  13.7020 353.5623 0028142  65.1502  70.7594  1.00270260105368
ISS (ZARYA)             
1 25544U 98067A   24122.62842895  .00014482  00000+0  25398-3 0  9993
2 25544  51.6391 186.2561 0003730 129.9929 324.1281 15.50801625451329
LANDSAT 7               
1 25682U 99020A   24122.52236625  .00000742  00000+0  16169-3 0  9993
2 25682  97.8918 151.5074 0001803 100.6337  71.3329 14.60601053332382
TERRA                   
1 25994U 99068A   24122.48985737  .00000798  00000+0  17670-3 0  9990
2 25994  98.0508 187.3451 0003056 128.4887 356.8089 14.59706330296354
TDRS 8                  
1 26388U 00034A   24121.53576314  .00000100  00000+0  00000+0 0  9997
2 26388  11.4684  37.6390 0003282 287.7666 278.7490  1.00271924 87376
TIMED                   
1 26998U 01055B   24121.95426079  .00001871  00000+0  19218-3 0  9997
2 26998  74.0727 355.7003 0000340 287.7236  72.3909 14.91181370214785
AQUA                    
1 27424U 02022A   24122.48299581  .00001765  00000+0  38451-3 0  9994
2 27424  98.3273  71.6914 0000735  86.2681  23.2585 14.59185230169905
TDRS 10                 
1 27566U 02055A   24122.23037660  .00000091  00000+0  00000+0 0  9994
2 27566   9.4773  45.7273 0006858 335.5761 110.2371  1.00277921 78439
SORCE                   
1 27651U 03004A   24122.33232564  .00004149  00000+0  38680-3 0  9992
2 27651  39.9941 347.0557 0022091 266.4933  93.3331 14.94708524155250
AURA                    
1 28376U 04026A   24122.17325490  .00001772  00000+0  39176-3 0  9995
2 28376  98.2481  67.3480 0001084 110.0272 250.1044 14.58475364 52868
SWIFT                   
1 28485U 04047A   24122.46294606  .00010070  00000+0  45780-3 0  9994
2 28485  20.5549 155.4227 0008302  38.6838 321.4192 15.17821169 67218
THEMIS A                
1 30580U 07004A   24120.50896306 -.00000504  00000+0  00000+0 0  9991
2 30580  10.4136 268.9271 8337447 311.5187   2.6175  0.87833804 59129
THEMIS D                
1 30797U 07004D   24121.63839080 -.00000501  00000+0  00000+0 0  9999
2 30797   6.4069 264.3011 8327125 319.9582 347.4241  0.87834994 34234
THEMIS E                
1 30798U 07004E   24121.56859868 -.00000520  00000+0  00000+0 0  9999
2 30798   7.9414 283.2653 8322119 302.3633 341.0652  0.87832507 59071
FGRST (GLAST)           
1 33053U 08029A   24121.53547368  .00003815  00000+0  17525-3 0  9993
2 33053  25.5811 176.4817 0010376 193.7095 166.3161 15.16402399877335
WISE                    
1 36119U 09071A   24122.10839738  .00043017  00000+0  54308-3 0  9994
2 36119  97.1521 158.2267 0000808 113.7150 246.4192 15.59454331800918
TDRS 11                 
1 39070U 13004A   24121.81190588  .00000081  00000+0  00000+0 0  9994
2 39070   2.7284   9.9868 0006088  38.8321 288.2645  1.00270772 38890
TDRS 12                 
1 39504U 14004A   24121.83844775 -.00000268  00000+0  00000+0 0  9991
2 39504   3.5530   2.2721 0002072 183.8794 293.9661  1.00267403 37654
GPM-CORE                
1 39574U 14009C   24121.93201490  .00017973  00000+0  39283-3 0  9994
2 39574  64.9881  31.2691 0012428 264.1844  95.7879 15.44201807577752
MMS 1                   
1 40482U 15011A   24122.58334491 -.00000581  00000+0  00000+0 0  9997
2 40482  44.7275  15.2553 9122221 143.2441  45.3907  0.28344265 15242
MMS 2                   
1 40483U 15011B   24122.58334491 -.00000581  00000+0  00000+0 0  9998
2 40483  44.7223  15.2484 9122251 143.2511  45.3861  0.28344265 15227
MMS 3                   
1 40484U 15011C   24122.58334491 -.00000581  00000+0  00000+0 0  9999
2 40484  44.7314  15.2434 9122948 143.2570  45.3730  0.28345690 15220
MMS 4                   
1 40485U 15011D   24122.58334491 -.00000581  00000+0  00000+0 0  9990
2 40485  44.7301  15.2455 9121823 143.2552  45.3721  0.28345708 15221
TDRS 13                 
1 42915U 17047A   24121.94494072 -.00000101  00000+0  00000+0 0  9990
2 42915   3.6805 343.6537 0016807 108.5383  95.8557  1.00271576 24550
NOAA 20 (JPSS-1)        
1 43013U 17073A   24122.47096046  .00000144  00000+0  89040-4 0  9999
2 43013  98.7039  61.1803 0001443  43.0036 317.1252 14.19573273334278
